{
  "type": "FeatureCollection",
  "features": [
    {
      "type": "Feature",
      "properties": {
        "norad_id": 31442,
        "name": "FENGYUN 1C DEB",
        "group": "fengyun-1c-debris",
        "lat": 39.59495185686723,
        "lon": 55.723833609764064,
        "alt_km": 718.4949446149749,
        "timestamp": "2025-12-02T17:49:12.310356+00:00",
        "meta_object_name": "FENGYUN 1C DEB",
        "meta_object_id": "1999-025BUE",
        "meta_epoch": "2025-11-30T12:02:43.199232",
        "meta_mean_motion": 14.33889615,
        "meta_eccentricity": 0.0079926,
        "meta_inclination": 98.5333,
        "meta_ra_of_asc_node": 60.6472,
        "meta_arg_of_pericenter": 49.012,
        "meta_mean_anomaly": 311.7942,
        "meta_ephemeris_type": 0,
        "meta_classification_type": "U",
        "meta_norad_cat_id": 31442,
        "meta_element_set_no": 999,
        "meta_rev_at_epoch": 97185,
        "meta_bstar": 0.0003719796,
        "meta_mean_motion_dot": 1.031e-05,
        "meta_mean_motion_ddot": 0,
        "tle_line1": "1 31442U 99025BUE 25334.50188888  .00001031  00000+0  37198-3 0  9997",
        "tle_line2": "2 31442  98.5333  60.6472 0079926  49.0120 311.7942 14.33889615971856"
      },
      "geometry": {
        "type": "Point",
        "coordinates": [
          55.723833609764064,
          39.59495185686723
        ]
      }
    },
    {
      "type": "Feature",
      "properties": {
        "norad_id": 31443,
        "name": "FENGYUN 1C DEB",
        "group": "fengyun-1c-debris",
        "lat": -59.1942216633776,
        "lon": 91.10419990779408,
        "alt_km": 873.3818435493858,
        "timestamp": "2025-12-02T17:49:12.310367+00:00",
        "meta_object_name": "FENGYUN 1C DEB",
        "meta_object_id": "1999-025BUF",
        "meta_epoch": "2025-11-30T13:03:15.363648",
        "meta_mean_motion": 14.48404183,
        "meta_eccentricity": 0.0192811,
        "meta_inclination": 99.2107,
        "meta_ra_of_asc_node": 72.916,
        "meta_arg_of_pericenter": 134.4181,
        "meta_mean_anomaly": 227.2974,
        "meta_ephemeris_type": 0,
        "meta_classification_type": "U",
        "meta_norad_cat_id": 31443,
        "meta_element_set_no": 999,
        "meta_rev_at_epoch": 66765,
        "meta_bstar": 0.0018323,
        "meta_mean_motion_dot": 8.637e-05,
        "meta_mean_motion_ddot": 0,
        "tle_line1": "1 31443U 99025BUF 25334.54392782  .00008637  00000+0  18323-2 0  9999",
        "tle_line2": "2 31443  99.2107  72.9160 0192811 134.4181 227.2974 14.48404183667654"
      },
      "geometry": {
        "type": "Point",
        "coordinates": [
          91.10419990779408,
          -59.1942216633776
        ]
      }
    },
    {
      "type": "Feature",
      "properties": {
        "norad_id": 31444,
        "name": "FENGYUN 1C DEB",
        "group": "fengyun-1c-debris",
        "lat": -48.170914558240355,
        "lon": 87.73810508362247,
        "alt_km": 694.8731706196013,
        "timestamp": "2025-12-02T17:49:12.310377+00:00",
        "meta_object_name": "FENGYUN 1C DEB",
        "meta_object_id": "1999-025BUG",
        "meta_epoch": "2025-12-01T01:34:11.823168",
        "meta_mean_motion": 14.69575715,
        "meta_eccentricity": 0.00621515,
        "meta_inclination": 98.9261,
        "meta_ra_of_asc_node": 276.0198,
        "meta_arg_of_pericenter": 107.7343,
        "meta_mean_anomaly": 253.0657,
        "meta_ephemeris_type": 0,
        "meta_classification_type": "U",
        "meta_norad_cat_id": 31444,
        "meta_element_set_no": 999,
        "meta_rev_at_epoch": 97317,
        "meta_bstar": 0.001770694,
        "meta_mean_motion_dot": 0.00010787,
        "meta_mean_motion_ddot": 0,
        "tle_line1": "1 31444U 99025BUG 25335.06541462  .00010787  00000+0  17707-2 0  9993",
        "tle_line2": "2 31444  98.9261 276.0198 0062151 107.7343 253.0657 14.69575715973171"
      },
      "geometry": {
        "type": "Point",
        "coordinates": [
          87.73810508362247,
          -48.170914558240355
        ]
      }
    },
    {
      "type": "Feature",
      "properties": {
        "norad_id": 31447,
        "name": "FENGYUN 1C DEB",
        "group": "fengyun-1c-debris",
        "lat": 64.35750624880846,
        "lon": -142.97642111502626,
        "alt_km": 801.9773895206708,
        "timestamp": "2025-12-02T17:49:12.310394+00:00",
        "meta_object_name": "FENGYUN 1C DEB",
        "meta_object_id": "1999-025BUK",
        "meta_epoch": "2025-11-29T08:21:43.391232",
        "meta_mean_motion": 14.24014054,
        "meta_eccentricity": 0.02308258,
        "meta_inclination": 98.9936,
        "meta_ra_of_asc_node": 14.2854,
        "meta_arg_of_pericenter": 33.7171,
        "meta_mean_anomaly": 327.8449,
        "meta_ephemeris_type": 0,
        "meta_classification_type": "U",
        "meta_norad_cat_id": 31447,
        "meta_element_set_no": 999,
        "meta_rev_at_epoch": 64661,
        "meta_bstar": 0.00017749079,
        "meta_mean_motion_dot": 4.86e-06,
        "meta_mean_motion_ddot": 0,
        "tle_line1": "1 31447U 99025BUK 25333.34841888  .00000486  00000+0  17749-3 0  9992",
        "tle_line2": "2 31447  98.9936  14.2854 0230825  33.7171 327.8449 14.24014054646616"
      },
      "geometry": {
        "type": "Point",
        "coordinates": [
          -142.97642111502626,
          64.35750624880846
        ]
      }
    },
    {
      "type": "Feature",
      "properties": {
        "norad_id": 31448,
        "name": "FENGYUN 1C DEB",
        "group": "fengyun-1c-debris",
        "lat": -7.866063224310906,
        "lon": -10.500610078100054,
        "alt_km": 822.8060831741204,
        "timestamp": "2025-12-02T17:49:12.310418+00:00",
        "meta_object_name": "FENGYUN 1C DEB",
        "meta_object_id": "1999-025BUL",
        "meta_epoch": "2025-11-28T06:12:48.926304",
        "meta_mean_motion": 14.27738865,
        "meta_eccentricity": 0.00586957,
        "meta_inclination": 98.5052,
        "meta_ra_of_asc_node": 343.9503,
        "meta_arg_of_pericenter": 247.1934,
        "meta_mean_anomaly": 112.304,
        "meta_ephemeris_type": 0,
        "meta_classification_type": "U",
        "meta_norad_cat_id": 31448,
        "meta_element_set_no": 999,
        "meta_rev_at_epoch": 64097,
        "meta_bstar": 0.00073907687,
        "meta_mean_motion_dot": 1.815e-05,
        "meta_mean_motion_ddot": 0,
        "tle_line1": "1 31448U 99025BUL 25332.25889961  .00001815  00000+0  73908-3 0  9992",
        "tle_line2": "2 31448  98.5052 343.9503 0058695 247.1934 112.3040 14.27738865640979"
      },
      "geometry": {
        "type": "Point",
        "coordinates": [
          -10.500610078100054,
          -7.866063224310906
        ]
      }
    },
    {
      "type": "Feature",
      "properties": {
        "norad_id": 31449,
        "name": "FENGYUN 1C DEB",
        "group": "fengyun-1c-debris",
        "lat": 56.41875522665149,
        "lon": -131.5275569785569,
        "alt_km": 877.0681153574451,
        "timestamp": "2025-12-02T17:49:12.310430+00:00",
        "meta_object_name": "FENGYUN 1C DEB",
        "meta_object_id": "1999-025BUM",
        "meta_epoch": "2025-11-28T21:07:14.377728",
        "meta_mean_motion": 14.33679291,
        "meta_eccentricity": 0.01442993,
        "meta_inclination": 98.557,
        "meta_ra_of_asc_node": 31.5442,
        "meta_arg_of_pericenter": 310.0752,
        "meta_mean_anomaly": 48.7853,
        "meta_ephemeris_type": 0,
        "meta_classification_type": "U",
        "meta_norad_cat_id": 31449,
        "meta_element_set_no": 999,
        "meta_rev_at_epoch": 97438,
        "meta_bstar": 0.00021805913,
        "meta_mean_motion_dot": 6.31e-06,
        "meta_mean_motion_ddot": 0,
        "tle_line1": "1 31449U 99025BUM 25332.88002752  .00000631  00000+0  21806-3 0  9992",
        "tle_line2": "2 31449  98.5570  31.5442 0144299 310.0752  48.7853 14.33679291974384"
      },
      "geometry": {
        "type": "Point",
        "coordinates": [
          -131.5275569785569,
          56.41875522665149
        ]
      }
    },
    {
      "type": "Feature",
      "properties": {
        "norad_id": 31451,
        "name": "FENGYUN 1C DEB",
        "group": "fengyun-1c-debris",
        "lat": -73.34548392141684,
        "lon": 167.97007229800099,
        "alt_km": 832.9315158770478,
        "timestamp": "2025-12-02T17:49:12.310440+00:00",
        "meta_object_name": "FENGYUN 1C DEB",
        "meta_object_id": "1999-025BUP",
        "meta_epoch": "2025-12-01T21:05:06.089280",
        "meta_mean_motion": 14.13599737,
        "meta_eccentricity": 0.00307329,
        "meta_inclination": 98.7648,
        "meta_ra_of_asc_node": 18.169,
        "meta_arg_of_pericenter": 242.8982,
        "meta_mean_anomaly": 298.5579,
        "meta_ephemeris_type": 0,
        "meta_classification_type": "U",
        "meta_norad_cat_id": 31451,
        "meta_element_set_no": 999,
        "meta_rev_at_epoch": 95856,
        "meta_bstar": 0.00042989773,
        "meta_mean_motion_dot": 7.71e-06,
        "meta_mean_motion_ddot": 0,
        "tle_line1": "1 31451U 99025BUP 25335.87854270  .00000771  00000+0  42990-3 0  9999",
        "tle_line2": "2 31451  98.7648  18.1690 0030732 242.8982 298.5579 14.13599737958560"
      },
      "geometry": {
        "type": "Point",
        "coordinates": [
          167.97007229800099,
          -73.34548392141684
        ]
      }
    }
  ]
}